[{"OBJECT_NAME":"STARLINK-3661","OBJECT_ID":"2022-029AT","EPOCH":"2026-03-09T06:45:10.080288","MEAN_MOTION":15.08838204,"ECCENTRICITY":0.00014301,"INCLINATION":53.2179,"RA_OF_ASC_NODE":70.9538,"ARG_OF_PERICENTER":93.302,"MEAN_ANOMALY":266.8136,"EPHEMERIS_TYPE":0,"CLASSIFICATION_TYPE":"U","NORAD_CAT_ID":52129,"ELEMENT_SET_NO":999,"REV_AT_EPOCH":22087,"BSTAR":-4.357367e-6,"MEAN_MOTION_DOT":-3.57e-6,"MEAN_MOTION_DDOT":0},{"OBJECT_NAME":"CZ-3C R\/B","OBJECT_ID":"2016-072B","EPOCH":"2026-03-09T15:47:45.263328","MEAN_MOTION":5.17329939,"ECCENTRICITY":0.51281076,"INCLINATION":16.8336,"RA_OF_ASC_NODE":249.6166,"ARG_OF_PERICENTER":185.6514,"MEAN_ANOMALY":165.0134,"EPHEMERIS_TYPE":0,"CLASSIFICATION_TYPE":"U","NORAD_CAT_ID":41870,"ELEMENT_SET_NO":999,"REV_AT_EPOCH":15518,"BSTAR":0.00078256799,"MEAN_MOTION_DOT":4.84e-6,"MEAN_MOTION_DDOT":0}]
